1 08820U 76039A   03006.82373842  .00000001  00000-0  10000-3 0  9297
2 08820 109.8367 126.3435 0044311 335.9673  23.8860  6.38664574366750
